ONEWEB-0283             
1 49001U 21060AL  24178.93816928  .00000031  00000+0  46232-4 0  9995
2 49001  87.9098  12.1785 0002099  80.8559 279.2809 13.16594834144848
ONEWEB-0284             
1 49002U 21060AM  24178.93183614  .00000021  00000+0  20156-4 0  9991
2 49002  87.9093  12.1627 0001808  81.4252 278.7084 13.16594975144826
ONEWEB-0285             
1 49075U 21075A   24178.39035490  .00000220  00000+0  57663-3 0  9998
2 49075  87.8946 134.1905 0002082  80.0983 280.0380 13.12442265140660
ONEWEB-0286             
1 49076U 21075B   24178.36185003 -.00000284  00000+0 -82404-3 0  9995
2 49076  87.8941 134.1987 0001837  89.4854 270.6485 13.12444039140014
ONEWEB-0287             
1 49077U 21075C   24178.98845207 -.00000259  00000+0 -70016-3 0  9991
2 49077  87.9171 149.2410 0001736  83.5046 276.6283 13.17648639139753
ONEWEB-0288             
1 49078U 21075D   24178.34806234  .00000123  00000+0  30613-3 0  9996
2 49078  87.8940 134.2051 0001894  79.6955 280.4386 13.12442773140634
ONEWEB-0289             
1 49079U 21075E   24179.16939459  .00000395  00000+0  98469-3 0  9998
2 49079  87.9169 149.2334 0002144  82.0975 278.0399 13.17638129140351
ONEWEB-0290             
1 49080U 21075F   24178.99975792  .00000016  00000+0  87358-5 0  9997
2 49080  87.9170 149.2273 0001725  73.9010 286.2312 13.17648588139758
